IRIDIUM 36 [-]          
1 24967U 97056C   23354.63907308  .00000531  00000+0  17424-3 0  9997
2 24967  86.3971  41.6346 0002083  88.3146 271.8290 14.36552062374019
IRIDIUM 39 [-]          
1 25042U 97069D   23354.79209961  .00000995  00000+0  26465-3 0  9992
2 25042  86.3918  84.3213 0017038 328.3530  31.6648 14.47573768370161
IRIDIUM 38 [-]          
1 25043U 97069E   23354.84266011  .00000751  00000+0  24682-3 0  9997
2 25043  86.3961 102.0285 0004037  98.3408 261.8247 14.37016959367756
IRIDIUM 42 [-]          
1 25077U 97077A   23354.82289524  .00000632  00000+0  21383-3 0  9998
2 25077  86.3966 107.5441 0002717  94.1166 266.0341 14.35314917363087
IRIDIUM 44 [-]          
1 25078U 97077B   23354.77285227  .00000740  00000+0  23297-3 0  9995
2 25078  86.3958  90.9467 0003132  57.4657 302.6844 14.39125368365374
IRIDIUM 45 [-]          
1 25104U 97082A   23354.93706191  .00010702  00000+0  66581-3 0  9999
2 25104  86.3744 306.0352 0174755 167.9135 192.6376 14.97560910369987
IRIDIUM 24 [-]          
1 25105U 97082B   23354.94285582  .00000947  00000+0  28901-3 0  9991
2 25105  86.3904 310.7726 0013775  77.0326 283.2411 14.40887729364812
IRIDIUM 51 [-]          
1 25262U 98018A   23354.93275648  .00013250  00000+0  70041-3 0  9999
2 25262  86.3924 316.3844 0162809 120.4471 241.2963 15.04516935364408
